ALOS (DAICHI)           
1 28931U 06002A   26038.88845510  .00002022  00000+0  34765-3 0  9992
2 28931  98.1170 355.0060 0002012  67.3510 292.7908 14.69710934 69104
H-2A R/B                
1 28932U 06002B   26038.84314130  .00010467  00000+0  53244-3 0  9993
2 28932  98.2361 183.3268 0052872 344.0386  15.9175 15.15821669 89917
RESURS-DK 1             
1 29228U 06021A   26038.84395588  .00003931  00000+0  23087-3 0  9999
2 29228  69.9349 314.2158 0004707 206.6441 153.4484 15.12570557 83019
CZ-4B R/B               
1 29507U 06046C   26038.65756691  .00006589  00000+0  33608-3 0  9993
2 29507  97.5652  83.6446 0033819  14.4325 345.7865 15.16579712 55498
CZ-2C R/B               
1 31114U 07010B   26038.85497649  .00000161  00000+0  92948-4 0  9992
2 31114  98.3969 153.6321 0059351  22.0336 338.3373 14.20235801975485
COSMO-SKYMED 1          
1 31598U 07023A   26038.84139451  .00004313  00000+0  38679-3 0  9998
2 31598  97.8857 229.6404 0000911  75.4760 284.6562 14.96297444 10441
COSMOS 2428             
1 31792U 07029A   26038.80069301  .00000331  00000+0  20318-3 0  9999
2 31792  70.9396 266.0852 0007248 310.0057  50.0427 14.12932173959873
SL-16 R/B               
1 31793U 07029B   26038.87622064  .00000435  00000+0  25036-3 0  9995
2 31793  70.9732 235.0532 0001923 276.9988 178.8196 14.14831154961151
KORONAS-FOTON           
1 33504U 09003A   26038.73673468  .00012818  00000+0  29417-3 0  9995
2 33504  82.4325 306.9966 0008911 265.8373  94.1855 15.42533662941129
CZ-2C R/B               
1 37731U 11030B   26038.81907776  .00002047  00000+0  26381-3 0  9995
2 37731  97.8496 356.6947 0054241  87.5933 329.8732 14.81107040785670
H-2A R/B                
1 38341U 12025E   26038.81144931  .00004529  00000+0  41275-3 0  9990
2 38341  98.4681   3.4859 0045894  51.4228 309.1088 14.94904082743754
SHIJIAN-16 (SJ-16)      
1 39358U 13057A   26038.86242884  .00001632  00000+0  16250-3 0  9993
2 39358  74.9704 241.5504 0016860 186.9724 173.1232 14.92238494667059
