CCSDS_OMM_VERS = 2.0
CREATION_DATE  = 
ORIGINATOR     = 

OBJECT_NAME    = ALOS (DAICHI)
OBJECT_ID      = 2006-002A
CENTER_NAME    = EARTH
REF_FRAME      = TEME
TIME_SYSTEM    = UTC
MEAN_ELEMENT_THEORY = SGP/SGP4

EPOCH          = 2026-02-07T21:19:22.520640
MEAN_MOTION    = 14.69710934
ECCENTRICITY   = .0002012
INCLINATION    = 98.1170
RA_OF_ASC_NODE = 355.0060
ARG_OF_PERICENTER = 67.3510
MEAN_ANOMALY   = 292.7908

EPHEMERIS_TYPE = 0
CLASSIFICATION_TYPE = U
NORAD_CAT_ID   = 28931
ELEMENT_SET_NO = 999
REV_AT_EPOCH   = 6910
BSTAR          = .34765E-3
MEAN_MOTION_DOT = .2022E-4
MEAN_MOTION_DDOT = 0

CCSDS_OMM_VERS = 2.0
CREATION_DATE  = 
ORIGINATOR     = 

OBJECT_NAME    = H-2A R/B
OBJECT_ID      = 2006-002B
CENTER_NAME    = EARTH
REF_FRAME      = TEME
TIME_SYSTEM    = UTC
MEAN_ELEMENT_THEORY = SGP/SGP4

EPOCH          = 2026-02-07T20:14:07.408320
MEAN_MOTION    = 15.15821669
ECCENTRICITY   = .0052872
INCLINATION    = 98.2361
RA_OF_ASC_NODE = 183.3268
ARG_OF_PERICENTER = 344.0386
MEAN_ANOMALY   = 15.9175

EPHEMERIS_TYPE = 0
CLASSIFICATION_TYPE = U
NORAD_CAT_ID   = 28932
ELEMENT_SET_NO = 999
REV_AT_EPOCH   = 8991
BSTAR          = .53244E-3
MEAN_MOTION_DOT = .10467E-3
MEAN_MOTION_DDOT = 0

CCSDS_OMM_VERS = 2.0
CREATION_DATE  = 
ORIGINATOR     = 

OBJECT_NAME    = RESURS-DK 1
OBJECT_ID      = 2006-021A
CENTER_NAME    = EARTH
REF_FRAME      = TEME
TIME_SYSTEM    = UTC
MEAN_ELEMENT_THEORY = SGP/SGP4

EPOCH          = 2026-02-07T20:15:17.788032
MEAN_MOTION    = 15.12570557
ECCENTRICITY   = .0004707
INCLINATION    = 69.9349
RA_OF_ASC_NODE = 314.2158
ARG_OF_PERICENTER = 206.6441
MEAN_ANOMALY   = 153.4484

EPHEMERIS_TYPE = 0
CLASSIFICATION_TYPE = U
NORAD_CAT_ID   = 29228
ELEMENT_SET_NO = 999
REV_AT_EPOCH   = 8301
BSTAR          = .23087E-3
MEAN_MOTION_DOT = .3931E-4
MEAN_MOTION_DDOT = 0

CCSDS_OMM_VERS = 2.0
CREATION_DATE  = 
ORIGINATOR     = 

OBJECT_NAME    = CZ-4B R/B
OBJECT_ID      = 2006-046C
CENTER_NAME    = EARTH
REF_FRAME      = TEME
TIME_SYSTEM    = UTC
MEAN_ELEMENT_THEORY = SGP/SGP4

EPOCH          = 2026-02-07T15:46:53.781024
MEAN_MOTION    = 15.16579712
ECCENTRICITY   = .0033819
INCLINATION    = 97.5652
RA_OF_ASC_NODE = 83.6446
ARG_OF_PERICENTER = 14.4325
MEAN_ANOMALY   = 345.7865

EPHEMERIS_TYPE = 0
CLASSIFICATION_TYPE = U
NORAD_CAT_ID   = 29507
ELEMENT_SET_NO = 999
REV_AT_EPOCH   = 5549
BSTAR          = .33608E-3
MEAN_MOTION_DOT = .6589E-4
MEAN_MOTION_DDOT = 0

CCSDS_OMM_VERS = 2.0
CREATION_DATE  = 
ORIGINATOR     = 

OBJECT_NAME    = CZ-2C R/B
OBJECT_ID      = 2007-010B
CENTER_NAME    = EARTH
REF_FRAME      = TEME
TIME_SYSTEM    = UTC
MEAN_ELEMENT_THEORY = SGP/SGP4

EPOCH          = 2026-02-07T20:31:09.968736
MEAN_MOTION    = 14.20235801
ECCENTRICITY   = .0059351
INCLINATION    = 98.3969
RA_OF_ASC_NODE = 153.6321
ARG_OF_PERICENTER = 22.0336
MEAN_ANOMALY   = 338.3373

EPHEMERIS_TYPE = 0
CLASSIFICATION_TYPE = U
NORAD_CAT_ID   = 31114
ELEMENT_SET_NO = 999
REV_AT_EPOCH   = 97548
BSTAR          = .92948E-4
MEAN_MOTION_DOT = .161E-5
MEAN_MOTION_DDOT = 0

CCSDS_OMM_VERS = 2.0
CREATION_DATE  = 
ORIGINATOR     = 

OBJECT_NAME    = COSMO-SKYMED 1
OBJECT_ID      = 2007-023A
CENTER_NAME    = EARTH
REF_FRAME      = TEME
TIME_SYSTEM    = UTC
MEAN_ELEMENT_THEORY = SGP/SGP4

EPOCH          = 2026-02-07T20:11:36.485664
MEAN_MOTION    = 14.96297444
ECCENTRICITY   = .0000911
INCLINATION    = 97.8857
RA_OF_ASC_NODE = 229.6404
ARG_OF_PERICENTER = 75.4760
MEAN_ANOMALY   = 284.6562

EPHEMERIS_TYPE = 0
CLASSIFICATION_TYPE = U
NORAD_CAT_ID   = 31598
ELEMENT_SET_NO = 999
REV_AT_EPOCH   = 1044
BSTAR          = .38679E-3
MEAN_MOTION_DOT = .4313E-4
MEAN_MOTION_DDOT = 0

CCSDS_OMM_VERS = 2.0
CREATION_DATE  = 
ORIGINATOR     = 

OBJECT_NAME    = COSMOS 2428
OBJECT_ID      = 2007-029A
CENTER_NAME    = EARTH
REF_FRAME      = TEME
TIME_SYSTEM    = UTC
MEAN_ELEMENT_THEORY = SGP/SGP4

EPOCH          = 2026-02-07T19:12:59.876064
MEAN_MOTION    = 14.12932173
ECCENTRICITY   = .0007248
INCLINATION    = 70.9396
RA_OF_ASC_NODE = 266.0852
ARG_OF_PERICENTER = 310.0057
MEAN_ANOMALY   = 50.0427

EPHEMERIS_TYPE = 0
CLASSIFICATION_TYPE = U
NORAD_CAT_ID   = 31792
ELEMENT_SET_NO = 999
REV_AT_EPOCH   = 95987
BSTAR          = .20318E-3
MEAN_MOTION_DOT = .331E-5
MEAN_MOTION_DDOT = 0

CCSDS_OMM_VERS = 2.0
CREATION_DATE  = 
ORIGINATOR     = 

OBJECT_NAME    = SL-16 R/B
OBJECT_ID      = 2007-029B
CENTER_NAME    = EARTH
REF_FRAME      = TEME
TIME_SYSTEM    = UTC
MEAN_ELEMENT_THEORY = SGP/SGP4

EPOCH          = 2026-02-07T21:01:45.463296
MEAN_MOTION    = 14.14831154
ECCENTRICITY   = .0001923
INCLINATION    = 70.9732
RA_OF_ASC_NODE = 235.0532
ARG_OF_PERICENTER = 276.9988
MEAN_ANOMALY   = 178.8196

EPHEMERIS_TYPE = 0
CLASSIFICATION_TYPE = U
NORAD_CAT_ID   = 31793
ELEMENT_SET_NO = 999
REV_AT_EPOCH   = 96115
BSTAR          = .25036E-3
MEAN_MOTION_DOT = .435E-5
MEAN_MOTION_DDOT = 0

CCSDS_OMM_VERS = 2.0
CREATION_DATE  = 
ORIGINATOR     = 

OBJECT_NAME    = KORONAS-FOTON
OBJECT_ID      = 2009-003A
CENTER_NAME    = EARTH
REF_FRAME      = TEME
TIME_SYSTEM    = UTC
MEAN_ELEMENT_THEORY = SGP/SGP4

EPOCH          = 2026-02-07T17:40:53.876352
MEAN_MOTION    = 15.42533662
ECCENTRICITY   = .0008911
INCLINATION    = 82.4325
RA_OF_ASC_NODE = 306.9966
ARG_OF_PERICENTER = 265.8373
MEAN_ANOMALY   = 94.1855

EPHEMERIS_TYPE = 0
CLASSIFICATION_TYPE = U
NORAD_CAT_ID   = 33504
ELEMENT_SET_NO = 999
REV_AT_EPOCH   = 94112
BSTAR          = .29417E-3
MEAN_MOTION_DOT = .12818E-3
MEAN_MOTION_DDOT = 0

CCSDS_OMM_VERS = 2.0
CREATION_DATE  = 
ORIGINATOR     = 

OBJECT_NAME    = CZ-2C R/B
OBJECT_ID      = 2011-030B
CENTER_NAME    = EARTH
REF_FRAME      = TEME
TIME_SYSTEM    = UTC
MEAN_ELEMENT_THEORY = SGP/SGP4

EPOCH          = 2026-02-07T19:39:28.318464
MEAN_MOTION    = 14.81107040
ECCENTRICITY   = .0054241
INCLINATION    = 97.8496
RA_OF_ASC_NODE = 356.6947
ARG_OF_PERICENTER = 87.5933
MEAN_ANOMALY   = 329.8732

EPHEMERIS_TYPE = 0
CLASSIFICATION_TYPE = U
NORAD_CAT_ID   = 37731
ELEMENT_SET_NO = 999
REV_AT_EPOCH   = 78567
BSTAR          = .26381E-3
MEAN_MOTION_DOT = .2047E-4
MEAN_MOTION_DDOT = 0

CCSDS_OMM_VERS = 2.0
CREATION_DATE  = 
ORIGINATOR     = 

OBJECT_NAME    = H-2A R/B
OBJECT_ID      = 2012-025E
CENTER_NAME    = EARTH
REF_FRAME      = TEME
TIME_SYSTEM    = UTC
MEAN_ELEMENT_THEORY = SGP/SGP4

EPOCH          = 2026-02-07T19:28:29.220384
MEAN_MOTION    = 14.94904082
ECCENTRICITY   = .0045894
INCLINATION    = 98.4681
RA_OF_ASC_NODE = 3.4859
ARG_OF_PERICENTER = 51.4228
MEAN_ANOMALY   = 309.1088

EPHEMERIS_TYPE = 0
CLASSIFICATION_TYPE = U
NORAD_CAT_ID   = 38341
ELEMENT_SET_NO = 999
REV_AT_EPOCH   = 74375
BSTAR          = .41275E-3
MEAN_MOTION_DOT = .4529E-4
MEAN_MOTION_DDOT = 0

CCSDS_OMM_VERS = 2.0
CREATION_DATE  = 
ORIGINATOR     = 

OBJECT_NAME    = SHIJIAN-16 (SJ-16)
OBJECT_ID      = 2013-057A
CENTER_NAME    = EARTH
REF_FRAME      = TEME
TIME_SYSTEM    = UTC
MEAN_ELEMENT_THEORY = SGP/SGP4

EPOCH          = 2026-02-07T20:41:53.851776
MEAN_MOTION    = 14.92238494
ECCENTRICITY   = .001686
INCLINATION    = 74.9704
RA_OF_ASC_NODE = 241.5504
ARG_OF_PERICENTER = 186.9724
MEAN_ANOMALY   = 173.1232

EPHEMERIS_TYPE = 0
CLASSIFICATION_TYPE = U
NORAD_CAT_ID   = 39358
ELEMENT_SET_NO = 999
REV_AT_EPOCH   = 66705
BSTAR          = .1625E-3
MEAN_MOTION_DOT = .1632E-4
MEAN_MOTION_DDOT = 0

